ONEWEB-0427             
1 50499U 21132AG  24244.91596136  .00000036  00000+0  57787-4 0  9998
2 50499  87.9081 105.6954 0002134  74.4299 285.7069 13.18687133136689
ONEWEB-0429             
1 50500U 21132AH  24244.90332531  .00000018  00000+0  12166-4 0  9999
2 50500  87.9081 105.7095 0001590  85.4979 274.6335 13.18684767135357
ONEWEB-0430             
1 50501U 21132AJ  24244.89224705  .00000083  00000+0  17857-3 0  9994
2 50501  87.9083 105.7134 0001928  94.2161 265.9192 13.18684621135397
ONEWEB-0432             
1 50502U 21132AK  24244.84799422  .00000035  00000+0  56578-4 0  9994
2 50502  87.9080 105.7143 0002148  87.4849 272.6529 13.18685757135342
ONEWEB-0440             
1 50503U 21132AL  24244.91121728  .00000054  00000+0  10497-3 0  9991
2 50503  87.9082 105.6926 0001333  70.6320 289.4956 13.18686938135348
ONEWEB-0450             
1 50504U 21132AM  24244.90502910  .00000078  00000+0  16553-3 0  9992
2 50504  87.9080 105.7223 0001605  94.0826 266.0489 13.18684202135378
ONEWEB-0410             
1 51622U 22012A   24244.95112466 -.00000007  00000+0 -50276-4 0  9995
2 51622  87.9160 136.1573 0003000  52.2503 307.8900 13.17646128127540
ONEWEB-0411             
1 51623U 22012B   24244.55289014  .00000603  00000+0  16924-2 0  9996
2 51623  87.8991 166.5098 0002354  93.0393 267.1003 13.10371507124832
